{
    "links": {
        "self": "http://www.neowsapp.com/rest/v1/neo/3555676?api_key=iIulBulltgU6a56xZRHN4H3l9WmuAYTsLGpBGhQ2"
    },
    "id": "3555676",
    "neo_reference_id": "3555676",
    "name": "(2011 BW11)",
    "designation": "2011 BW11",
    "nasa_jpl_url": "http://ssd.jpl.nasa.gov/sbdb.cgi?sstr=3555676",
    "absolute_magnitude_h": 28.3,
    "estimated_diameter": {
        "kilometers": {
            "estimated_diameter_min": 0.0058150704,
            "estimated_diameter_max": 0.0130028927
        },
        "meters": {
            "estimated_diameter_min": 5.8150703965,
            "estimated_diameter_max": 13.0028927004
        },
        "miles": {
            "estimated_diameter_min": 0.0036133161,
            "estimated_diameter_max": 0.0080796204
        },
        "feet": {
            "estimated_diameter_min": 19.0783155595,
            "estimated_diameter_max": 42.6604104873
        }
    },
    "is_potentially_hazardous_asteroid": false,
    "close_approach_data": [
        {
            "close_approach_date": "1980-02-11",
            "close_approach_date_full": "1980-Feb-11 05:18",
            "epoch_date_close_approach": 319094280000,
            "relative_velocity": {
                "kilometers_per_second": "34.6387630782",
                "kilometers_per_hour": "124699.5470814095",
                "miles_per_hour": "77483.4491295569"
            },
            "miss_distance": {
                "astronomical": "0.356355245",
                "lunar": "138.622190305",
                "kilometers": "53309985.61532815",
                "miles": "33125289.02130247"
            },
            "orbiting_body": "Earth"
        },
        {
            "close_approach_date": "2011-01-25",
            "close_approach_date_full": "2011-Jan-25 06:34",
            "epoch_date_close_approach": 1295937240000,
            "relative_velocity": {
                "kilometers_per_second": "23.9541833184",
                "kilometers_per_hour": "86235.059946321",
                "miles_per_hour": "53583.1126649793"
            },
            "miss_distance": {
                "astronomical": "0.0008612418",
                "lunar": "0.3350230602",
                "kilometers": "128839.938834966",
                "miles": "80057.4256798908"
            },
            "orbiting_body": "Earth"
        },
        {
            "close_approach_date": "2011-01-25",
            "close_approach_date_full": "2011-Jan-25 07:20",
            "epoch_date_close_approach": 1295940000000,
            "relative_velocity": {
                "kilometers_per_second": "24.9745122738",
                "kilometers_per_hour": "89908.2441855745",
                "miles_per_hour": "55865.4865051977"
            },
            "miss_distance": {
                "astronomical": "0.0024381079",
                "lunar": "0.9484239731",
                "kilometers": "364735.748670173",
                "miles": "226636.2849594674"
            },
            "orbiting_body": "Moon"
        },
        {
            "close_approach_date": "2053-02-03",
            "close_approach_date_full": "2053-Feb-03 12:36",
            "epoch_date_close_approach": 2622198960000,
            "relative_velocity": {
                "kilometers_per_second": "29.4495574409",
                "kilometers_per_hour": "106018.4067871435",
                "miles_per_hour": "65875.7150394893"
            },
            "miss_distance": {
                "astronomical": "0.1828054852",
                "lunar": "71.1113337428",
                "kilometers": "27347311.210236524",
                "miles": "16992831.2179870712"
            },
            "orbiting_body": "Earth"
        }
    ],
    "orbital_data": {
        "orbit_id": "7",
        "orbit_determination_date": "2017-04-06 08:54:52",
        "first_observation_date": "2011-01-26",
        "last_observation_date": "2011-01-28",
        "data_arc_in_days": 2,
        "observations_used": 15,
        "orbit_uncertainty": "8",
        "minimum_orbit_intersection": ".000862882",
        "jupiter_tisserand_invariant": "3.430",
        "epoch_osculation": "2455588.5",
        "eccentricity": ".7541963708464787",
        "semi_major_axis": "1.987060650100973",
        "inclination": "1.567633006730449",
        "ascending_node_longitude": "302.90340424",
        "orbital_period": "1023.092995872066",
        "perihelion_distance": ".4884267191429745",
        "perihelion_argument": "81.9745996635416",
        "aphelion_distance": "3.485694581058972",
        "perihelion_time": "2455541.612752215097",
        "mean_anomaly": "16.49841145494048",
        "mean_motion": ".3518741712166081",
        "equinox": "J2000",
        "orbit_class": {
            "orbit_class_type": "APO",
            "orbit_class_description": "Near-Earth asteroid orbits which cross the Earth’s orbit similar to that of 1862 Apollo",
            "orbit_class_range": "a (semi-major axis) > 1.0 AU; q (perihelion) < 1.017 AU"
        }
    },
    "is_sentry_object": false
}